      2.10          N: GNSS NAV DATA                        RINEX VERSION / TYPE
fic2rin                                 07/14/2020 00:17:26 PGM / RUN BY / DATE
                                                            END OF HEADER
22 20  7 13 12  0  0.0-7.723141461611e-04 2.614797267597e-12 0.000000000000e+00
    9.700000000000e+01-2.193750000000e+01 5.363794852157e-09 3.981109320840e-01
   -1.225620508194e-06 6.946992129087e-03 5.904585123062e-06 5.153783874512e+03
    1.296000000000e+05-5.587935447693e-09-3.132398083262e+00-1.471489667892e-07
    9.315428778371e-01 2.541875000000e+02-1.119704994310e+00-8.618573283886e-09
    9.643258823294e-12 1.000000000000e+00 2.114000000000e+03 0.000000000000e+00
    2.400000000000e+00 0.000000000000e+00-1.816079020500e-08 9.700000000000e+01
    1.224000000000e+05 4.000000000000e+00
21 20  7 13 12  0  0.0 2.315407618880e-05 4.547473508865e-12 0.000000000000e+00
    8.500000000000e+01 1.937500000000e+00 4.474829251743e-09 2.959992589287e+00
    1.508742570877e-07 2.380097762216e-02 7.597729563713e-06 5.155107816696e+03
    1.296000000000e+05 3.296881914139e-07 2.123622436461e+00 1.471489667892e-07
    9.536479547623e-01 2.233437500000e+02-1.312980433717e+00-7.705678115281e-09
    2.321525272275e-11 1.000000000000e+00 2.114000000000e+03 0.000000000000e+00
    2.400000000000e+00 0.000000000000e+00-1.024454832077e-08 8.500000000000e+01
    1.224000000000e+05 4.000000000000e+00
12 20  7 13 12  0  0.0 9.429641067982e-05-4.888534022029e-12 0.000000000000e+00
    1.040000000000e+02 3.006250000000e+01 4.442327897931e-09-2.256906471294e+00
    1.572072505951e-06 7.977502886206e-03 4.908069968224e-06 5.153661737442e+03
    1.296000000000e+05 1.490116119385e-07 1.670369927784e-01 5.401670932770e-08
    9.779796529838e-01 2.936562500000e+02 1.167445298223e+00-7.991761460372e-09
    8.571785620706e-11 1.000000000000e+00 2.114000000000e+03 0.000000000000e+00
    2.400000000000e+00 0.000000000000e+00-1.210719347000e-08 1.040000000000e+02
    1.224000000000e+05 4.000000000000e+00
25 20  7 13 12  0  0.0 2.284441143274e-05 4.206412995700e-12 0.000000000000e+00
    9.100000000000e+01 3.300000000000e+01 4.674837582893e-09-2.464186153370e+00
    1.654028892517e-06 9.092953056097e-03 5.036592483521e-06 5.153767545700e+03
    1.296000000000e+05 2.179294824600e-07 9.754768473833e-02-6.891787052155e-08
    9.653069437203e-01 2.837500000000e+02 9.409225102279e-01-8.132481607645e-09
    8.321775206769e-11 1.000000000000e+00 2.114000000000e+03 0.000000000000e+00
    2.400000000000e+00 0.000000000000e+00 5.587935447693e-09 9.100000000000e+01
    1.224000000000e+05 4.000000000000e+00
17 20  7 13 12  0  0.0 2.952581271529e-04 5.798028723802e-12 0.000000000000e+00
    8.800000000000e+01-3.846875000000e+01 4.046954286176e-09 1.243913366259e+00
   -2.192333340645e-06 1.325528952293e-02 7.562339305878e-06 5.153729778290e+03
    1.296000000000e+05-2.048909664154e-07 1.201473673904e+00-2.440065145493e-07
    9.836782148318e-01 2.506875000000e+02-1.640382678969e+00-8.018905448170e-09
   -2.421529437849e-10 1.000000000000e+00 2.114000000000e+03 0.000000000000e+00
    2.400000000000e+00 0.000000000000e+00-1.071020960808e-08 8.800000000000e+01
    1.224000000000e+05 4.000000000000e+00
26 20  7 13 12  0  0.0 2.425643615425e-04 6.821210263297e-12 0.000000000000e+00
    9.600000000000e+01 2.912500000000e+01 5.135571060005e-09-3.074323582672e+00
    1.559033989906e-06 4.768696380779e-03 4.991888999939e-06 5.153644561768e+03
    1.296000000000e+05-6.332993507385e-08 6.140522712276e-02-7.450580596924e-08
    9.463602835216e-01 2.775625000000e+02 2.181281924748e-01-8.337132989339e-09
    7.857470152314e-12 1.000000000000e+00 2.114000000000e+03 0.000000000000e+00
    2.400000000000e+00 0.000000000000e+00 6.984919309616e-09 9.600000000000e+01
    1.224000000000e+05 4.000000000000e+00
18 20  7 13 12  0  0.0 2.451236359775e-04 9.436007530894e-12 0.000000000000e+00
    1.320000000000e+02-5.562500000000e+00 4.309108063076e-09-2.444501497814e-01
   -3.799796104431e-07 7.451639976352e-04 8.141621947289e-06 5.153720096588e+03
    1.296000000000e+05-1.862645149231e-09 2.215459285469e+00-6.332993507385e-08
    9.643548678568e-01 2.280937500000e+02 2.581057422076e+00-7.971046311788e-09
    2.964409193827e-11 1.000000000000e+00 2.114000000000e+03 0.000000000000e+00
    2.400000000000e+00 0.000000000000e+00-7.916241884232e-09 6.440000000000e+02
    1.224000000000e+05 4.000000000000e+00
14 20  7 13 12  0  0.0 1.030508428812e-06 2.842170943040e-12 0.000000000000e+00
    8.100000000000e+01-1.668750000000e+01 4.501258924073e-09 1.120969820115e+00
   -9.071081876755e-07 1.154976885300e-02 9.067356586456e-06 5.153667158127e+03
    1.296000000000e+05-2.011656761169e-07-1.917292874327e+00-1.303851604462e-08
    9.601839450468e-01 2.039687500000e+02-1.910236197851e+00-8.128910030303e-09
   -1.332198348551e-10 1.000000000000e+00 2.114000000000e+03 0.000000000000e+00
    2.400000000000e+00 6.300000000000e+01-9.778887033463e-09 8.100000000000e+01
    1.224000000000e+05 4.000000000000e+00
28 20  7 13 12  0  0.0 6.999755278230e-04-3.751665644813e-12 0.000000000000e+00
    1.020000000000e+02 2.709375000000e+01 4.347323940635e-09 2.079331664121e+00
    1.227483153343e-06 1.837306981906e-02 4.917383193970e-06 5.153664728165e+03
    1.296000000000e+05 2.551823854446e-07 1.895857610536e-01-1.005828380585e-07
    9.772206369563e-01 2.897500000000e+02-1.403450046802e+00-7.829611849047e-09
   -1.289339420448e-10 1.000000000000e+00 2.114000000000e+03 0.000000000000e+00
    4.850000000000e+00 0.000000000000e+00-1.117587089539e-08 1.020000000000e+02
    1.224000000000e+05 4.000000000000e+00
 4 20  7 13 12  0  0.0-1.141829416156e-04-4.661160346586e-12 0.000000000000e+00
    1.110000000000e+02-2.096875000000e+01 4.421612749348e-09 3.856341470501e-01
   -1.063570380211e-06 7.910780841485e-04 9.261071681976e-06 5.153659778595e+03
    1.296000000000e+05 3.911554813385e-08-1.965312737496e+00 6.332993507385e-08
    9.597671011693e-01 2.002500000000e+02-2.658570314982e+00-7.946045270394e-09
   -8.750364487804e-11 1.000000000000e+00 2.114000000000e+03 0.000000000000e+00
    2.400000000000e+00 0.000000000000e+00-4.190951585770e-09 6.230000000000e+02
    1.224600000000e+05 4.000000000000e+00
 2 20  7 13 14  0  0.0-4.866230301559e-04-5.684341886081e-12 0.000000000000e+00
    2.300000000000e+01-1.471875000000e+01 4.636621705334e-09 4.772980162353e-01
   -7.208436727524e-07 1.971678214613e-02 8.674338459969e-06 5.153738269806e+03
    1.368000000000e+05-2.291053533554e-07 2.121599154926e+00-4.470348358154e-08
    9.596550343299e-01 2.187500000000e+02-1.618055823663e+00-8.482139029423e-09
    1.714357124141e-11 1.000000000000e+00 2.114000000000e+03 0.000000000000e+00
    2.400000000000e+00 0.000000000000e+00-1.769512891769e-08 2.300000000000e+01
    1.296000000000e+05 4.000000000000e+00
 1 20  7 13 14  0  0.0 2.496410161257e-05 4.320099833421e-12 0.000000000000e+00
    1.340000000000e+02-5.312500000000e-01 4.163030549790e-09 2.299122565398e-01
    1.080334186554e-07 1.005230157170e-02 7.942318916321e-06 5.153707296371e+03
    1.368000000000e+05-2.607703208923e-08 2.198867724421e+00 1.657754182816e-07
    9.807400214042e-01 2.344062500000e+02 8.051283054656e-01-8.037477650349e-09
    6.714565402886e-11 1.000000000000e+00 2.114000000000e+03 0.000000000000e+00
    2.400000000000e+00 0.000000000000e+00 5.122274160385e-09 1.340000000000e+02
    1.296000000000e+05 4.000000000000e+00
 3 20  7 13 14  0  0.0-2.384609542787e-04-1.159605744760e-11 0.000000000000e+00
    4.700000000000e+01-2.456250000000e+01 4.579119310128e-09-8.305718960362e-01
   -1.382082700729e-06 3.057242836803e-03 6.074085831642e-06 5.153784219742e+03
    1.368000000000e+05 7.823109626770e-08-3.044367238001e+00 5.029141902924e-08
    9.664586874207e-01 2.648125000000e+02 7.833447618422e-01-8.127124241632e-09
   -4.214461263514e-11 1.000000000000e+00 2.114000000000e+03 0.000000000000e+00
    2.400000000000e+00 0.000000000000e+00 1.862645149231e-09 4.700000000000e+01
    1.296000000000e+05 4.000000000000e+00
 7 20  7 13 14  0  0.0-3.262916579843e-04-8.640199666843e-12 0.000000000000e+00
    2.800000000000e+01 6.003125000000e+01 4.720196615135e-09-5.034702175440e-01
    3.350898623466e-06 1.410769368522e-02 8.501112461090e-06 5.153656732559e+03
    1.368000000000e+05 9.685754776001e-08-9.395057896387e-01 2.328306436539e-07
    9.527906672128e-01 2.131875000000e+02-2.381184886297e+00-8.337490147073e-09
    2.017941198208e-10 1.000000000000e+00 2.114000000000e+03 0.000000000000e+00
    2.400000000000e+00 0.000000000000e+00-1.117587089539e-08 2.800000000000e+01
    1.296000000000e+05 4.000000000000e+00
10 20  7 13 14  0  0.0-3.984505310655e-04-1.068656274583e-11 0.000000000000e+00
    2.000000000000e+01-2.034375000000e+01 4.414826752398e-09-1.832534903040e+00
   -1.028180122375e-06 5.698517896235e-03 6.349757313728e-06 5.153665081024e+03
    1.368000000000e+05-5.587935447693e-09-3.047382919273e+00-9.872019290924e-08
    9.663985731910e-01 2.618437500000e+02-2.641667562000e+00-7.966403261244e-09
    8.250343659930e-11 1.000000000000e+00 2.114000000000e+03 0.000000000000e+00
    2.400000000000e+00 0.000000000000e+00 2.328306436539e-09 2.000000000000e+01
    1.296000000000e+05 4.000000000000e+00
 9 20  7 13 14  0  0.0-2.528941258788e-04-6.480149750132e-12 0.000000000000e+00
    3.400000000000e+01-2.446875000000e+01 4.545903640848e-09 2.747594347030e+00
   -1.193955540657e-06 1.551422639750e-03 9.030103683472e-06 5.153696514130e+03
    1.368000000000e+05-2.793967723846e-08-2.013669101081e+00 4.470348358154e-08
    9.525303555698e-01 2.006250000000e+02 1.791333954124e+00-7.959974422028e-09
   -1.675069773380e-10 1.000000000000e+00 2.114000000000e+03 0.000000000000e+00
    2.400000000000e+00 0.000000000000e+00 1.396983861923e-09 3.400000000000e+01
    1.296000000000e+05 4.000000000000e+00
